CSS (TIANHE)            
1 48274U 21035A   24027.61205668  .00017303  00000+0  18971-3 0  9997
2 48274  41.4665 228.1110 0008510 251.3967 108.5949 15.62800258156932
